HAWK-11B                
1 62379U 24247C   26068.44730104  .00009093  00000+0  32842-3 0  9993
2 62379  45.0161 115.7610 0004690 333.0326  27.0314 15.28847070 67738
STARLINK-36412          
1 67518U 26012AB  26068.02545720  .00029885  00000+0  10902-2 0  9990
2 67518  43.0014 317.8493 0007043 233.6209 126.3993 15.27589895  7666
